OBJECT_NAME,OBJECT_ID,EPOCH,MEAN_MOTION,ECCENTRICITY,INCLINATION,RA_OF_ASC_NODE,ARG_OF_PERICENTER,MEAN_ANOMALY,EPHEMERIS_TYPE,CLASSIFICATION_TYPE,NORAD_CAT_ID,ELEMENT_SET_NO,REV_AT_EPOCH,BSTAR,MEAN_MOTION_DOT,MEAN_MOTION_DDOT
TRANSPORTER-17 OBJECT AF,2026-156AF,2026-07-20T23:03:58.671072,14.91464349,.00070717,97.7548,102.1898,98.0827,262.1194,0,U,69898,999,203,.57199993E-4,.517E-5,0
TRANSPORTER-17 OBJECT AG,2026-156AG,2026-07-20T23:07:43.871808,14.91181158,.00066905,97.7512,102.1799,87.0515,273.1470,0,U,69899,999,203,.72112479E-4,.661E-5,0
TRANSPORTER-17 OBJECT AH,2026-156AH,2026-07-20T23:07:54.585408,14.91170733,.00060554,97.7566,102.1895,91.1165,269.0747,0,U,69900,999,203,.9618129E-4,.9E-5,0
TRANSPORTER-17 OBJECT AJ,2026-156AJ,2026-07-20T23:09:01.160928,14.91080433,.00062044,97.7527,102.1811,85.7451,274.4477,0,U,69901,999,203,.50531119E-4,.445E-5,0
TRANSPORTER-17 OBJECT AK,2026-156AK,2026-07-20T23:10:07.538592,14.91001446,.00057931,97.7493,102.1751,83.2613,276.9265,0,U,69902,999,203,.11359771E-3,.1068E-4,0
TRANSPORTER-17 OBJECT AL,2026-156AL,2026-07-20T23:10:18.256512,14.90986113,.00050003,97.7577,102.1882,91.5786,268.6005,0,U,69903,999,203,.96888304E-4,.902E-5,0
TRANSPORTER-17 OBJECT AM,2026-156AM,2026-07-20T23:02:28.501440,14.91581498,.00077763,97.7512,102.1836,98.9354,261.2745,0,U,69904,999,192,.78936974E-4,.736E-5,0
TRANSPORTER-17 OBJECT AN,2026-156AN,2026-07-20T23:09:49.002336,14.91036526,.00053215,97.7569,102.1876,89.7863,270.3965,0,U,69905,999,203,.20707472E-3,.1994E-4,0
TRANSPORTER-17 OBJECT AP,2026-156AP,2026-07-20T23:10:47.790624,14.90946181,.00056105,97.7476,102.1722,80.4465,279.7387,0,U,69906,999,203,.61757175E-4,.555E-5,0
TRANSPORTER-17 OBJECT AQ,2026-156AQ,2026-07-20T23:10:55.379136,14.90933824,.00052345,97.7499,102.1756,84.2338,275.9477,0,U,69907,999,203,.35355152E-4,.294E-5,0
TRANSPORTER-17 OBJECT AR,2026-156AR,2026-07-20T23:03:58.242528,14.91469725,.00075359,97.7520,102.1842,95.3242,264.8836,0,U,69908,999,203,.9398256E-4,.885E-5,0
TRANSPORTER-17 OBJECT AS,2026-156AS,2026-07-20T23:04:54.683328,14.91395309,.0007014,97.7539,102.1871,95.0901,265.1118,0,U,69909,999,203,.67782035E-4,.621E-5,0
TRANSPORTER-17 OBJECT AT,2026-156AT,2026-07-20T23:10:46.983648,14.90965922,.00048907,97.7550,102.1832,92.1344,268.0435,0,U,69910,999,203,.2236113E-3,.2154E-4,0
TRANSPORTER-17 OBJECT AU,2026-156AU,2026-07-20T21:37:26.755968,14.90696040,.00037162,97.7539,102.1126,89.4180,270.7464,0,U,69911,999,202,.77717744E-4,.707E-5,0
TRANSPORTER-17 OBJECT AV,2026-156AV,2026-07-20T23:12:38.119104,14.90809750,.00041538,97.7555,102.1822,92.1939,267.9755,0,U,69912,999,203,.10131382E-3,.942E-5,0
TRANSPORTER-17 OBJECT AW,2026-156AW,2026-07-20T21:34:52.239072,14.90893576,.00043042,97.7582,102.1210,100.5759,259.5945,0,U,69913,999,202,.81264786E-4,.746E-5,0
TRANSPORTER-17 OBJECT AX,2026-156AX,2026-07-20T23:13:29.893440,14.90742016,.00044608,97.7561,102.1829,79.2951,280.8769,0,U,69914,999,203,.77227109E-4,.703E-5,0
TRANSPORTER-17 OBJECT AY,2026-156AY,2026-07-20T23:00:53.161632,14.91704693,.00083176,97.7514,102.1854,101.2599,258.9555,0,U,69915,999,203,.95422061E-4,.905E-5,0
TRANSPORTER-17 OBJECT AZ,2026-156AZ,2026-07-20T23:11:58.050240,14.90867777,.00045816,97.7519,102.1777,87.6096,272.5647,0,U,69916,999,203,.14935652E-3,.1417E-4,0
TRANSPORTER-17 OBJECT BA,2026-156BA,2026-07-20T21:13:45.180480,14.92514538,.00111427,97.7575,102.1398,113.8064,246.4325,0,U,69917,999,202,.12608241E-3,.1239E-4,0
TRANSPORTER-17 OBJECT BB,2026-156BB,2026-07-20T23:00:23.949792,14.91736850,.00078342,97.7553,102.1942,105.1255,255.0831,0,U,69918,999,203,.55889673E-4,.507E-5,0
TRANSPORTER-17 OBJECT BC,2026-156BC,2026-07-21T00:35:17.666592,14.91865683,.00086675,97.7521,102.2553,104.8363,255.3817,0,U,69919,999,204,.5821596E-4,.533E-5,0
TRANSPORTER-17 OBJECT BD,2026-156BD,2026-07-20T22:57:33.772896,14.91963442,.00090507,97.7525,102.1913,105.5099,254.7120,0,U,69920,999,203,.14330158E-3,.1396E-4,0
TRANSPORTER-17 OBJECT BE,2026-156BE,2026-07-20T21:21:49.803264,14.91901703,.00083427,97.7552,102.1296,108.0417,252.1711,0,U,69921,999,202,.15052428E-3,.1467E-4,0
TRANSPORTER-17 OBJECT BF,2026-156BF,2026-07-21T06:00:02.999808,14.91985036,.00092385,97.7517,102.4788,105.4221,30.3692,0,U,69922,999,130,-.17817622E-2,-.18068E-3,0
TRANSPORTER-17 OBJECT BG,2026-156BG,2026-07-20T22:57:15.026688,14.91980872,.00092061,97.7514,102.1899,105.0776,255.1462,0,U,69923,999,203,.93412393E-4,.891E-5,0
TRANSPORTER-17 OBJECT BH,2026-156BH,2026-07-21T00:31:59.566944,14.92117143,.00098106,97.7523,102.2593,104.9010,255.3296,0,U,69924,999,204,.69018826E-4,.646E-5,0
TRANSPORTER-17 OBJECT BJ,2026-156BJ,2026-07-20T22:55:05.357568,14.92179982,.00102106,97.7510,102.1917,103.2704,256.9654,0,U,69925,999,203,.32489626E-3,.3255E-4,0
TRANSPORTER-17 OBJECT BK,2026-156BK,2026-07-20T22:54:17.603424,14.92220904,.00097986,97.7581,102.2036,113.0044,247.2210,0,U,69926,999,203,.23148991E-3,.2305E-4,0
