TRANSPORTER-17 OBJECT AF
1 69898U 26156AF  26201.96109573  .00000517  00000+0  57200-4 0  9991
2 69898  97.7548 102.1898 0007071  98.0827 262.1194 14.91464349  2035
TRANSPORTER-17 OBJECT AG
1 69899U 26156AG  26201.96370222  .00000661  00000+0  72112-4 0  9992
2 69899  97.7512 102.1799 0006690  87.0515 273.1470 14.91181158  2038
TRANSPORTER-17 OBJECT AH
1 69900U 26156AH  26201.96382622  .00000900  00000+0  96181-4 0  9990
2 69900  97.7566 102.1895 0006055  91.1165 269.0747 14.91170733  2037
TRANSPORTER-17 OBJECT AJ
1 69901U 26156AJ  26201.96459677  .00000445  00000+0  50531-4 0  9999
2 69901  97.7527 102.1811 0006204  85.7451 274.4477 14.91080433  2033
TRANSPORTER-17 OBJECT AK
1 69902U 26156AK  26201.96536503  .00001068  00000+0  11360-3 0  9992
2 69902  97.7493 102.1751 0005793  83.2613 276.9265 14.91001446  2033
TRANSPORTER-17 OBJECT AL
1 69903U 26156AL  26201.96548908  .00000902  00000+0  96888-4 0  9990
2 69903  97.7577 102.1882 0005000  91.5786 268.6005 14.90986113  2038
TRANSPORTER-17 OBJECT AM
1 69904U 26156AM  26201.96005210  .00000736  00000+0  78937-4 0  9995
2 69904  97.7512 102.1836 0007776  98.9354 261.2745 14.91581498  1926
TRANSPORTER-17 OBJECT AN
1 69905U 26156AN  26201.96515049  .00001994  00000+0  20707-3 0  9990
2 69905  97.7569 102.1876 0005321  89.7863 270.3965 14.91036526  2035
TRANSPORTER-17 OBJECT AP
1 69906U 26156AP  26201.96583091  .00000555  00000+0  61757-4 0  9996
2 69906  97.7476 102.1722 0005610  80.4465 279.7387 14.90946181  2037
TRANSPORTER-17 OBJECT AQ
1 69907U 26156AQ  26201.96591874  .00000294  00000+0  35355-4 0  9990
2 69907  97.7499 102.1756 0005234  84.2338 275.9477 14.90933824  2031
TRANSPORTER-17 OBJECT AR
1 69908U 26156AR  26201.96109077  .00000885  00000+0  93983-4 0  9998
2 69908  97.7520 102.1842 0007535  95.3242 264.8836 14.91469725  2037
TRANSPORTER-17 OBJECT AS
1 69909U 26156AS  26201.96174402  .00000621  00000+0  67782-4 0  9999
2 69909  97.7539 102.1871 0007014  95.0901 265.1118 14.91395309  2034
TRANSPORTER-17 OBJECT AT
1 69910U 26156AT  26201.96582157  .00002154  00000+0  22361-3 0  9997
2 69910  97.7550 102.1832 0004890  92.1344 268.0435 14.90965922  2031
TRANSPORTER-17 OBJECT AU
1 69911U 26156AU  26201.90100412  .00000707  00000+0  77718-4 0  9991
2 69911  97.7539 102.1126 0003716  89.4180 270.7464 14.90696040  2021
TRANSPORTER-17 OBJECT AV
1 69912U 26156AV  26201.96710786  .00000942  00000+0  10131-3 0  9995
2 69912  97.7555 102.1822 0004153  92.1939 267.9755 14.90809750  2038
TRANSPORTER-17 OBJECT AW
1 69913U 26156AW  26201.89921573  .00000746  00000+0  81265-4 0  9995
2 69913  97.7582 102.1210 0004304 100.5759 259.5945 14.90893576  2028
TRANSPORTER-17 OBJECT AX
1 69914U 26156AX  26201.96770710  .00000703  00000+0  77227-4 0  9995
2 69914  97.7561 102.1829 0004460  79.2951 280.8769 14.90742016  2035
TRANSPORTER-17 OBJECT AY
1 69915U 26156AY  26201.95894863  .00000905  00000+0  95422-4 0  9992
2 69915  97.7514 102.1854 0008317 101.2599 258.9555 14.91704693  2030
TRANSPORTER-17 OBJECT AZ
1 69916U 26156AZ  26201.96664410  .00001417  00000+0  14936-3 0  9996
2 69916  97.7519 102.1777 0004581  87.6096 272.5647 14.90867777  2034
TRANSPORTER-17 OBJECT BA
1 69917U 26156BA  26201.88455070  .00001239  00000+0  12608-3 0  9994
2 69917  97.7575 102.1398 0011142 113.8064 246.4325 14.92514538  2022
TRANSPORTER-17 OBJECT BB
1 69918U 26156BB  26201.95861053  .00000507  00000+0  55890-4 0  9993
2 69918  97.7553 102.1942 0007834 105.1255 255.0831 14.91736850  2034
TRANSPORTER-17 OBJECT BC
1 69919U 26156BC  26202.02451003  .00000533  00000+0  58216-4 0  9997
2 69919  97.7521 102.2553 0008667 104.8363 255.3817 14.91865683  2045
TRANSPORTER-17 OBJECT BD
1 69920U 26156BD  26201.95664089  .00001396  00000+0  14330-3 0  9996
2 69920  97.7525 102.1913 0009050 105.5099 254.7120 14.91963442  2032
TRANSPORTER-17 OBJECT BE
1 69921U 26156BE  26201.89015976  .00001467  00000+0  15052-3 0  9996
2 69921  97.7552 102.1296 0008342 108.0417 252.1711 14.91901703  2021
TRANSPORTER-17 OBJECT BF
1 69922U 26156BF  26202.25003472 -.00018068  00000+0 -17818-2 0  9994
2 69922  97.7517 102.4788 0009238 105.4221  30.3692 14.91985036  1306
TRANSPORTER-17 OBJECT BG
1 69923U 26156BG  26201.95642392  .00000891  00000+0  93412-4 0  9990
2 69923  97.7514 102.1899 0009206 105.0776 255.1462 14.91980872  2036
TRANSPORTER-17 OBJECT BH
1 69924U 26156BH  26202.02221721  .00000646  00000+0  69019-4 0  9993
2 69924  97.7523 102.2593 0009810 104.9010 255.3296 14.92117143  2041
TRANSPORTER-17 OBJECT BJ
1 69925U 26156BJ  26201.95492312  .00003255  00000+0  32490-3 0  9992
2 69925  97.7510 102.1917 0010210 103.2704 256.9654 14.92179982  2038
TRANSPORTER-17 OBJECT BK
1 69926U 26156BK  26201.95437041  .00002305  00000+0  23149-3 0  9997
2 69926  97.7581 102.2036 0009798 113.0044 247.2210 14.92220904  2037
